{"type": "FeatureCollection", "features": [ {"type": "Feature", "properties": {"norad_id": 28649, "name": "IRS-P5 (CARTOSAT-1)", "group": "resource", "lat": 27.9448072596715, "lon": -148.91968117661298, "alt_km": 595.3002870299188, "timestamp": "2025-12-27T06:41:30.555061+00:00", "meta": {"OBJECT_NAME": "IRS-P5 (CARTOSAT-1)", "OBJECT_ID": "2005-017A", "EPOCH": "2025-12-26T20:20:45.653568", "MEAN_MOTION": 14.90451268, "ECCENTRICITY": 4.655e-05, "INCLINATION": 97.5483, "RA_OF_ASC_NODE": 26.6348, "ARG_OF_PERICENTER": 75.7075, "MEAN_ANOMALY": 284.4196, "EPHEMERIS_TYPE": 0, "CLASSIFICATION_TYPE": "U", "NORAD_CAT_ID": 28649, "ELEMENT_SET_NO": 999, "REV_AT_EPOCH": 11814, "BSTAR": 0.00017521229, "MEAN_MOTION_DOT": 1.656e-05, "MEAN_MOTION_DDOT": 0}, "tle": {"line1": "1 28649U 05017A   25360.84775062  .00001656  00000+0  17521-3 0  9993", "line2": "2 28649  97.5483  26.6348 0000465  75.7075 284.4196 14.90451268118141"}}, "geometry": {"type": "Point", "coordinates": [-148.91968117661298, 27.9448072596715]}}, {"type": "Feature", "properties": {"norad_id": 28893, "name": "SINAH 1", "group": "resource", "lat": -23.059229228760433, "lon": -53.67027577609742, "alt_km": 689.3342933310714, "timestamp": "2025-12-27T06:41:30.555071+00:00", "meta": {"OBJECT_NAME": "SINAH 1", "OBJECT_ID": "2005-043D", "EPOCH": "2025-12-26T21:33:58.889664", "MEAN_MOTION": 14.63977617, "ECCENTRICITY": 0.00157345, "INCLINATION": 98.261, "RA_OF_ASC_NODE": 129.4944, "ARG_OF_PERICENTER": 95.7533, "MEAN_ANOMALY": 264.5463, "EPHEMERIS_TYPE": 0, "CLASSIFICATION_TYPE": "U", "NORAD_CAT_ID": 28893, "ELEMENT_SET_NO": 999, "REV_AT_EPOCH": 7531, "BSTAR": 0.00011646405, "MEAN_MOTION_DOT": 5.62e-06, "MEAN_MOTION_DDOT": 0}, "tle": {"line1": "1 28893U 05043D   25360.89859826  .00000562  00000+0  11646-3 0  9996", "line2": "2 28893  98.2610 129.4944 0015734  95.7533 264.5463 14.63977617 75310"}}, "geometry": {"type": "Point", "coordinates": [-53.67027577609742, -23.059229228760433]}}, {"type": "Feature", "properties": {"norad_id": 29079, "name": "EROS B", "group": "resource", "lat": 23.97556435422534, "lon": 115.30609464278365, "alt_km": 348.26677486777135, "timestamp": "2025-12-27T06:41:30.555083+00:00", "meta": {"OBJECT_NAME": "EROS B", "OBJECT_ID": "2006-014A", "EPOCH": "2025-12-26T22:57:23.125824", "MEAN_MOTION": 15.7311304, "ECCENTRICITY": 0.00048882, "INCLINATION": 97.3448, "RA_OF_ASC_NODE": 118.2547, "ARG_OF_PERICENTER": 311.9545, "MEAN_ANOMALY": 48.1302, "EPHEMERIS_TYPE": 0, "CLASSIFICATION_TYPE": "U", "NORAD_CAT_ID": 29079, "ELEMENT_SET_NO": 999, "REV_AT_EPOCH": 9303, "BSTAR": 0.0016177864, "MEAN_MOTION_DOT": 0.00226724, "MEAN_MOTION_DDOT": 0}, "tle": {"line1": "1 29079U 06014A   25360.95651766  .00226724  00000+0  16178-2 0  9996", "line2": "2 29079  97.3448 118.2547 0004888 311.9545  48.1302 15.73113040 93036"}}, "geometry": {"type": "Point", "coordinates": [115.30609464278365, 23.97556435422534]}}, {"type": "Feature", "properties": {"norad_id": 29228, "name": "RESURS-DK 1", "group": "resource", "lat": 24.45619110573792, "lon": -125.30718861560622, "alt_km": 528.3200450803633, "timestamp": "2025-12-27T06:41:30.555093+00:00", "meta": {"OBJECT_NAME": "RESURS-DK 1", "OBJECT_ID": "2006-021A", "EPOCH": "2025-12-26T22:04:34.255488", "MEAN_MOTION": 15.12241224, "ECCENTRICITY": 0.00069617, "INCLINATION": 69.9337, "RA_OF_ASC_NODE": 65.1898, "ARG_OF_PERICENTER": 246.3572, "MEAN_ANOMALY": 113.6863, "EPHEMERIS_TYPE": 0, "CLASSIFICATION_TYPE": "U", "NORAD_CAT_ID": 29228, "ELEMENT_SET_NO": 999, "REV_AT_EPOCH": 7652, "BSTAR": 0.00019994941, "MEAN_MOTION_DOT": 3.359e-05, "MEAN_MOTION_DDOT": 0}, "tle": {"line1": "1 29228U 06021A   25360.91984092  .00003359  00000+0  19995-3 0  9995", "line2": "2 29228  69.9337  65.1898 0006961 246.3572 113.6863 15.12241224 76522"}}, "geometry": {"type": "Point", "coordinates": [-125.30718861560622, 24.45619110573792]}}, {"type": "Feature", "properties": {"norad_id": 29268, "name": "ARIRANG-2 (KOMPSAT-2)", "group": "resource", "lat": 43.85004743422006, "lon": 16.63536039347772, "alt_km": 680.1019226047974, "timestamp": "2025-12-27T06:41:30.555104+00:00", "meta": {"OBJECT_NAME": "ARIRANG-2 (KOMPSAT-2)", "OBJECT_ID": "2006-031A", "EPOCH": "2025-12-27T00:15:25.211808", "MEAN_MOTION": 14.64507738, "ECCENTRICITY": 0.00131183, "INCLINATION": 97.826, "RA_OF_ASC_NODE": 188.7881, "ARG_OF_PERICENTER": 260.0523, "MEAN_ANOMALY": 262.8969, "EPHEMERIS_TYPE": 0, "CLASSIFICATION_TYPE": "U", "NORAD_CAT_ID": 29268, "ELEMENT_SET_NO": 999, "REV_AT_EPOCH": 3627, "BSTAR": 0.00016298425, "MEAN_MOTION_DOT": 8.2e-06, "MEAN_MOTION_DDOT": 0}, "tle": {"line1": "1 29268U 06031A   25361.01070847  .00000820  00000+0  16298-3 0  9999", "line2": "2 29268  97.8260 188.7881 0013118 260.0523 262.8969 14.64507738 36279"}}, "geometry": {"type": "Point", "coordinates": [16.63536039347772, 43.85004743422006]}}, {"type": "Feature", "properties": {"norad_id": 29709, "name": "LAPAN-TUBSAT", "group": "resource", "lat": 78.71563306529086, "lon": -142.5287905090302, "alt_km": 600.5320875035095, "timestamp": "2025-12-27T06:41:30.555114+00:00", "meta": {"OBJECT_NAME": "LAPAN-TUBSAT", "OBJECT_ID": "2007-001A", "EPOCH": "2025-12-26T23:47:18.536064", "MEAN_MOTION": 14.85690621, "ECCENTRICITY": 0.00130244, "INCLINATION": 98.1268, "RA_OF_ASC_NODE": 351.4412, "ARG_OF_PERICENTER": 31.6204, "MEAN_ANOMALY": 328.579, "EPHEMERIS_TYPE": 0, "CLASSIFICATION_TYPE": "U", "NORAD_CAT_ID": 29709, "ELEMENT_SET_NO": 999, "REV_AT_EPOCH": 2558, "BSTAR": 7.9117294e-05, "MEAN_MOTION_DOT": 6.29e-06, "MEAN_MOTION_DDOT": 0}, "tle": {"line1": "1 29709U 07001A   25360.99118676  .00000629  00000+0  79117-4 0  9993", "line2": "2 29709  98.1268 351.4412 0013024  31.6204 328.5790 14.85690621 25585"}}, "geometry": {"type": "Point", "coordinates": [-142.5287905090302, 78.71563306529086]}}, {"type": "Feature", "properties": {"norad_id": 31113, "name": "HAIYANG-1B", "group": "resource", "lat": 3.2212498128940923, "lon": -15.515310649762, "alt_km": 781.40796504627, "timestamp": "2025-12-27T06:41:30.555125+00:00", "meta": {"OBJECT_NAME": "HAIYANG-1B", "OBJECT_ID": "2007-010A", "EPOCH": "2025-12-26T22:17:09.432096", "MEAN_MOTION": 14.30969835, "ECCENTRICITY": 0.00134919, "INCLINATION": 98.3331, "RA_OF_ASC_NODE": 344.6215, "ARG_OF_PERICENTER": 357.1772, "MEAN_ANOMALY": 2.9334, "EPHEMERIS_TYPE": 0, "CLASSIFICATION_TYPE": "U", "NORAD_CAT_ID": 31113, "ELEMENT_SET_NO": 999, "REV_AT_EPOCH": 97599, "BSTAR": 7.6749437e-05, "MEAN_MOTION_DOT": 1.6e-06, "MEAN_MOTION_DDOT": 0}, "tle": {"line1": "1 31113U 07010A   25360.92858139  .00000160  00000+0  76749-4 0  9991", "line2": "2 31113  98.3331 344.6215 0013491 357.1772   2.9334 14.30969835975991"}}, "geometry": {"type": "Point", "coordinates": [-15.515310649762, 3.2212498128940923]}}, {"type": "Feature", "properties": {"norad_id": 31598, "name": "COSMO-SKYMED 1", "group": "resource", "lat": -42.92603739000743, "lon": -0.6309314218052763, "alt_km": 586.9886223029152, "timestamp": "2025-12-27T06:41:30.555136+00:00", "meta": {"OBJECT_NAME": "COSMO-SKYMED 1", "OBJECT_ID": "2007-023A", "EPOCH": "2025-12-26T23:16:29.406720", "MEAN_MOTION": 14.95870779, "ECCENTRICITY": 0.00011153, "INCLINATION": 97.8838, "RA_OF_ASC_NODE": 186.4631, "ARG_OF_PERICENTER": 77.4605, "MEAN_ANOMALY": 282.674, "EPHEMERIS_TYPE": 0, "CLASSIFICATION_TYPE": "U", "NORAD_CAT_ID": 31598, "ELEMENT_SET_NO": 999, "REV_AT_EPOCH": 403, "BSTAR": 0.00036427741, "MEAN_MOTION_DOT": 4.014e-05, "MEAN_MOTION_DDOT": 0}, "tle": {"line1": "1 31598U 07023A   25360.96978480  .00004014  00000+0  36428-3 0  9999", "line2": "2 31598  97.8838 186.4631 0001115  77.4605 282.6740 14.95870779  4030"}}, "geometry": {"type": "Point", "coordinates": [-0.6309314218052763, -42.92603739000743]}}, {"type": "Feature", "properties": {"norad_id": 31698, "name": "TERRASAR-X", "group": "resource", "lat": 17.8505629636924, "lon": 4.033337595139283, "alt_km": 508.23900870369835, "timestamp": "2025-12-27T06:41:30.555147+00:00", "meta": {"OBJECT_NAME": "TERRASAR-X", "OBJECT_ID": "2007-026A", "EPOCH": "2025-12-26T13:13:25.268160", "MEAN_MOTION": 15.19159007, "ECCENTRICITY": 0.0001831, "INCLINATION": 97.4449, "RA_OF_ASC_NODE": 5.7296, "ARG_OF_PERICENTER": 80.7089, "MEAN_ANOMALY": 279.4352, "EPHEMERIS_TYPE": 0, "CLASSIFICATION_TYPE": "U", "NORAD_CAT_ID": 31698, "ELEMENT_SET_NO": 999, "REV_AT_EPOCH": 2701, "BSTAR": 7.4512e-05, "MEAN_MOTION_DOT": 1.498e-05, "MEAN_MOTION_DDOT": 0}, "tle": {"line1": "1 31698U 07026A   25360.55098690  .00001498  00000+0  74512-4 0  9994", "line2": "2 31698  97.4449   5.7296 0001831  80.7089 279.4352 15.19159007 27010"}}, "geometry": {"type": "Point", "coordinates": [4.033337595139283, 17.8505629636924]}}, {"type": "Feature", "properties": {"norad_id": 32060, "name": "WORLDVIEW-1 (WV-1)", "group": "resource", "lat": -69.14653737888793, "lon": 138.44201823585388, "alt_km": 499.95886143579355, "timestamp": "2025-12-27T06:41:30.555163+00:00", "meta": {"OBJECT_NAME": "WORLDVIEW-1 (WV-1)", "OBJECT_ID": "2007-041A", "EPOCH": "2025-12-26T21:32:43.566144", "MEAN_MOTION": 15.23990388, "ECCENTRICITY": 0.00030256, "INCLINATION": 97.3817, "RA_OF_ASC_NODE": 118.1698, "ARG_OF_PERICENTER": 347.9244, "MEAN_ANOMALY": 12.192, "EPHEMERIS_TYPE": 0, "CLASSIFICATION_TYPE": "U", "NORAD_CAT_ID": 32060, "ELEMENT_SET_NO": 999, "REV_AT_EPOCH": 1663, "BSTAR": 0.00039989671, "MEAN_MOTION_DOT": 9.618e-05, "MEAN_MOTION_DDOT": 0}, "tle": {"line1": "1 32060U 07041A   25360.89772646  .00009618  00000+0  39990-3 0  9994", "line2": "2 32060  97.3817 118.1698 0003025 347.9244  12.1920 15.23990388 16634"}}, "geometry": {"type": "Point", "coordinates": [138.44201823585388, -69.14653737888793]}}]}